{"type": "FeatureCollection", "features": [ {"type": "Feature", "properties": {"norad_id": 40118, "name": "GAOFEN-2", "group": "resource", "lat": 29.036608595729124, "lon": 46.493200436428324, "alt_km": 623.8536550458448, "timestamp": "2025-12-17T19:34:07.701905+00:00", "meta": {"OBJECT_NAME": "GAOFEN-2", "OBJECT_ID": "2014-049A", "EPOCH": "2025-12-17T08:04:59.443104", "MEAN_MOTION": 14.80618581, "ECCENTRICITY": 0.00086809, "INCLINATION": 98.0385, "RA_OF_ASC_NODE": 50.5135, "ARG_OF_PERICENTER": 100.2098, "MEAN_ANOMALY": 260.0093, "EPHEMERIS_TYPE": 0, "CLASSIFICATION_TYPE": "U", "NORAD_CAT_ID": 40118, "ELEMENT_SET_NO": 999, "REV_AT_EPOCH": 61232, "BSTAR": 0.00012693781, "MEAN_MOTION_DOT": 9.21e-06, "MEAN_MOTION_DDOT": 0}, "tle": {"line1": "1 40118U 14049A   25351.33679911  .00000921  00000+0  12694-3 0  9993", "line2": "2 40118  98.0385  50.5135 0008680 100.2098 260.0093 14.80618581612326"}}, "geometry": {"type": "Point", "coordinates": [46.493200436428324, 29.036608595729124]}}, {"type": "Feature", "properties": {"norad_id": 40143, "name": "YAOGAN-21", "group": "resource", "lat": 58.15233945843889, "lon": 23.207199017197812, "alt_km": 483.7180966321739, "timestamp": "2025-12-17T19:34:07.701915+00:00", "meta": {"OBJECT_NAME": "YAOGAN-21", "OBJECT_ID": "2014-053A", "EPOCH": "2025-12-17T08:16:44.518944", "MEAN_MOTION": 15.23724383, "ECCENTRICITY": 0.0009371, "INCLINATION": 97.1752, "RA_OF_ASC_NODE": 34.4582, "ARG_OF_PERICENTER": 26.375, "MEAN_ANOMALY": 333.7963, "EPHEMERIS_TYPE": 0, "CLASSIFICATION_TYPE": "U", "NORAD_CAT_ID": 40143, "ELEMENT_SET_NO": 999, "REV_AT_EPOCH": 62724, "BSTAR": 0.00016837172, "MEAN_MOTION_DOT": 3.981e-05, "MEAN_MOTION_DDOT": 0}, "tle": {"line1": "1 40143U 14053A   25351.34495971  .00003981  00000+0  16837-3 0  9991", "line2": "2 40143  97.1752  34.4582 0009371  26.3750 333.7963 15.23724383627247"}}, "geometry": {"type": "Point", "coordinates": [23.207199017197812, 58.15233945843889]}}, {"type": "Feature", "properties": {"norad_id": 40275, "name": "YAOGAN-22", "group": "resource", "lat": 54.85801833369993, "lon": 119.66123386824077, "alt_km": 1201.052578024207, "timestamp": "2025-12-17T19:34:07.701926+00:00", "meta": {"OBJECT_NAME": "YAOGAN-22", "OBJECT_ID": "2014-063A", "EPOCH": "2025-12-17T08:19:54.203232", "MEAN_MOTION": 13.15522836, "ECCENTRICITY": 0.00059876, "INCLINATION": 100.7424, "RA_OF_ASC_NODE": 134.8317, "ARG_OF_PERICENTER": 236.9635, "MEAN_ANOMALY": 123.0901, "EPHEMERIS_TYPE": 0, "CLASSIFICATION_TYPE": "U", "NORAD_CAT_ID": 40275, "ELEMENT_SET_NO": 999, "REV_AT_EPOCH": 53590, "BSTAR": 4.8590485e-05, "MEAN_MOTION_DOT": -2.8e-07, "MEAN_MOTION_DDOT": 0}, "tle": {"line1": "1 40275U 14063A   25351.34715513 -.00000028  00000+0  48590-4 0  9997", "line2": "2 40275 100.7424 134.8317 0005987 236.9635 123.0901 13.15522836535902"}}, "geometry": {"type": "Point", "coordinates": [119.66123386824077, 54.85801833369993]}}, {"type": "Feature", "properties": {"norad_id": 40298, "name": "ASNARO", "group": "resource", "lat": 30.595807508747058, "lon": 63.25133717689345, "alt_km": 504.66525254969474, "timestamp": "2025-12-17T19:34:07.701936+00:00", "meta": {"OBJECT_NAME": "ASNARO", "OBJECT_ID": "2014-070A", "EPOCH": "2025-12-17T08:22:14.522880", "MEAN_MOTION": 15.19592123, "ECCENTRICITY": 0.00055733, "INCLINATION": 97.3653, "RA_OF_ASC_NODE": 67.1827, "ARG_OF_PERICENTER": 109.9899, "MEAN_ANOMALY": 250.1936, "EPHEMERIS_TYPE": 0, "CLASSIFICATION_TYPE": "U", "NORAD_CAT_ID": 40298, "ELEMENT_SET_NO": 999, "REV_AT_EPOCH": 61639, "BSTAR": 0.000384879, "MEAN_MOTION_DOT": 8.131e-05, "MEAN_MOTION_DDOT": 0}, "tle": {"line1": "1 40298U 14070A   25351.34877920  .00008131  00000+0  38488-3 0  9997", "line2": "2 40298  97.3653  67.1827 0005573 109.9899 250.1936 15.19592123616393"}}, "geometry": {"type": "Point", "coordinates": [63.25133717689345, 30.595807508747058]}}, {"type": "Feature", "properties": {"norad_id": 40310, "name": "YAOGAN-24", "group": "resource", "lat": -66.21799749812799, "lon": 141.8423276870492, "alt_km": 658.927345836255, "timestamp": "2025-12-17T19:34:07.701946+00:00", "meta": {"OBJECT_NAME": "YAOGAN-24", "OBJECT_ID": "2014-072A", "EPOCH": "2025-12-17T08:29:15.823104", "MEAN_MOTION": 14.76188454, "ECCENTRICITY": 0.00149203, "INCLINATION": 98.1214, "RA_OF_ASC_NODE": 122.4708, "ARG_OF_PERICENTER": 124.0304, "MEAN_ANOMALY": 236.2325, "EPHEMERIS_TYPE": 0, "CLASSIFICATION_TYPE": "U", "NORAD_CAT_ID": 40310, "ELEMENT_SET_NO": 999, "REV_AT_EPOCH": 59689, "BSTAR": 0.00015864022, "MEAN_MOTION_DOT": 1.046e-05, "MEAN_MOTION_DDOT": 0}, "tle": {"line1": "1 40310U 14072A   25351.35365536  .00001046  00000+0  15864-3 0  9991", "line2": "2 40310  98.1214 122.4708 0014920 124.0304 236.2325 14.76188454596897"}}, "geometry": {"type": "Point", "coordinates": [141.8423276870492, -66.21799749812799]}}, {"type": "Feature", "properties": {"norad_id": 40336, "name": "CBERS 4", "group": "resource", "lat": 10.781446968636201, "lon": 48.05990222916756, "alt_km": 774.8953922317569, "timestamp": "2025-12-17T19:34:07.701957+00:00", "meta": {"OBJECT_NAME": "CBERS 4", "OBJECT_ID": "2014-079A", "EPOCH": "2025-12-17T07:48:30.000672", "MEAN_MOTION": 14.35519308, "ECCENTRICITY": 0.00017432, "INCLINATION": 98.3308, "RA_OF_ASC_NODE": 49.1856, "ARG_OF_PERICENTER": 107.7294, "MEAN_ANOMALY": 252.4083, "EPHEMERIS_TYPE": 0, "CLASSIFICATION_TYPE": "U", "NORAD_CAT_ID": 40336, "ELEMENT_SET_NO": 999, "REV_AT_EPOCH": 57786, "BSTAR": 3.37449e-05, "MEAN_MOTION_DOT": 5.5e-07, "MEAN_MOTION_DDOT": 0}, "tle": {"line1": "1 40336U 14079A   25351.32534723  .00000055  00000+0  33745-4 0  9997", "line2": "2 40336  98.3308  49.1856 0001743 107.7294 252.4083 14.35519308577863"}}, "geometry": {"type": "Point", "coordinates": [48.05990222916756, 10.781446968636201]}}, {"type": "Feature", "properties": {"norad_id": 40362, "name": "YAOGAN-26", "group": "resource", "lat": 59.11523950231844, "lon": -19.654807749032884, "alt_km": 439.2270662739711, "timestamp": "2025-12-17T19:34:07.701966+00:00", "meta": {"OBJECT_NAME": "YAOGAN-26", "OBJECT_ID": "2014-088A", "EPOCH": "2025-12-17T06:49:48.207072", "MEAN_MOTION": 15.39466461, "ECCENTRICITY": 0.00056751, "INCLINATION": 97.0633, "RA_OF_ASC_NODE": 351.7976, "ARG_OF_PERICENTER": 16.6565, "MEAN_ANOMALY": 343.4867, "EPHEMERIS_TYPE": 0, "CLASSIFICATION_TYPE": "U", "NORAD_CAT_ID": 40362, "ELEMENT_SET_NO": 999, "REV_AT_EPOCH": 60964, "BSTAR": 0.00050233326, "MEAN_MOTION_DOT": 0.00019652, "MEAN_MOTION_DDOT": 0}, "tle": {"line1": "1 40362U 14088A   25351.28458573  .00019652  00000+0  50233-3 0  9992", "line2": "2 40362  97.0633 351.7976 0005675  16.6565 343.4867 15.39466461609640"}}, "geometry": {"type": "Point", "coordinates": [-19.654807749032884, 59.11523950231844]}}, {"type": "Feature", "properties": {"norad_id": 40376, "name": "SMAP", "group": "resource", "lat": 1.4254883266815506, "lon": -3.7377867335731287, "alt_km": 685.1441176392809, "timestamp": "2025-12-17T19:34:07.701977+00:00", "meta": {"OBJECT_NAME": "SMAP", "OBJECT_ID": "2015-003A", "EPOCH": "2025-12-17T06:26:01.850208", "MEAN_MOTION": 14.63350839, "ECCENTRICITY": 0.0001216, "INCLINATION": 98.1289, "RA_OF_ASC_NODE": 355.9266, "ARG_OF_PERICENTER": 91.0876, "MEAN_ANOMALY": 269.0466, "EPHEMERIS_TYPE": 0, "CLASSIFICATION_TYPE": "U", "NORAD_CAT_ID": 40376, "ELEMENT_SET_NO": 999, "REV_AT_EPOCH": 58101, "BSTAR": 0.0001028241, "MEAN_MOTION_DOT": 4.84e-06, "MEAN_MOTION_DDOT": 0}, "tle": {"line1": "1 40376U 15003A   25351.26807697  .00000484  00000+0  10282-3 0  9991", "line2": "2 40376  98.1289 355.9266 0001216  91.0876 269.0466 14.63350839581016"}}, "geometry": {"type": "Point", "coordinates": [-3.7377867335731287, 1.4254883266815506]}}, {"type": "Feature", "properties": {"norad_id": 40536, "name": "KOMPSAT-3A", "group": "resource", "lat": 81.034805358589, "lon": -92.33864587135967, "alt_km": 423.4175312126199, "timestamp": "2025-12-17T19:34:07.701987+00:00", "meta": {"OBJECT_NAME": "KOMPSAT-3A", "OBJECT_ID": "2015-014A", "EPOCH": "2025-12-17T08:18:48.871008", "MEAN_MOTION": 15.44113669, "ECCENTRICITY": 0.0005215, "INCLINATION": 97.6784, "RA_OF_ASC_NODE": 325.9479, "ARG_OF_PERICENTER": 116.5104, "MEAN_ANOMALY": 243.6679, "EPHEMERIS_TYPE": 0, "CLASSIFICATION_TYPE": "U", "NORAD_CAT_ID": 40536, "ELEMENT_SET_NO": 999, "REV_AT_EPOCH": 59366, "BSTAR": 0.00036998864, "MEAN_MOTION_DOT": 0.00016857, "MEAN_MOTION_DDOT": 0}, "tle": {"line1": "1 40536U 15014A   25351.34639897  .00016857  00000+0  36999-3 0  9999", "line2": "2 40536  97.6784 325.9479 0005215 116.5104 243.6679 15.44113669593667"}}, "geometry": {"type": "Point", "coordinates": [-92.33864587135967, 81.034805358589]}}, {"type": "Feature", "properties": {"norad_id": 40697, "name": "SENTINEL-2A", "group": "resource", "lat": -3.642364192050581, "lon": 64.8251790986393, "alt_km": 792.406862216284, "timestamp": "2025-12-17T19:34:07.701997+00:00", "meta": {"OBJECT_NAME": "SENTINEL-2A", "OBJECT_ID": "2015-028A", "EPOCH": "2025-12-17T07:50:15.748224", "MEAN_MOTION": 14.30815525, "ECCENTRICITY": 0.00010437, "INCLINATION": 98.5691, "RA_OF_ASC_NODE": 63.7935, "ARG_OF_PERICENTER": 88.2546, "MEAN_ANOMALY": 271.8757, "EPHEMERIS_TYPE": 0, "CLASSIFICATION_TYPE": "U", "NORAD_CAT_ID": 40697, "ELEMENT_SET_NO": 999, "REV_AT_EPOCH": 54772, "BSTAR": 9.8358151e-05, "MEAN_MOTION_DOT": 2.14e-06, "MEAN_MOTION_DDOT": 0}, "tle": {"line1": "1 40697U 15028A   25351.32657116  .00000214  00000+0  98358-4 0  9992", "line2": "2 40697  98.5691  63.7935 0001043  88.2546 271.8757 14.30815525547726"}}, "geometry": {"type": "Point", "coordinates": [64.8251790986393, -3.642364192050581]}}]}